{"fetched_at":"2026-07-08T17:59:28.433Z","source":"https://celestrak.org/NORAD/elements/gp.php?GROUP=spire&FORMAT=JSON","constellation":"spire","records":[{"OBJECT_NAME":"LEMUR-1","OBJECT_ID":"2014-033AL","EPOCH":"2026-07-07T21:48:25.688160","CLASSIFICATION_TYPE":"U","MEAN_MOTION":14.85322651,"ECCENTRICITY":0.0048383,"INCLINATION":97.7901,"RA_OF_ASC_NODE":338.2567,"ARG_OF_PERICENTER":11.9074,"MEAN_ANOMALY":348.3273,"EPHEMERIS_TYPE":0,"NORAD_CAT_ID":40044,"ELEMENT_SET_NO":999,"REV_AT_EPOCH":64854,"BSTAR":0.00013327,"MEAN_MOTION_DOT":0.00001114,"MEAN_MOTION_DDOT":0},{"OBJECT_NAME":"LEMUR-2-GREENBERG","OBJECT_ID":"2017-042N","EPOCH":"2026-07-08T10:48:27.217728","CLASSIFICATION_TYPE":"U","MEAN_MOTION":15.32004569,"ECCENTRICITY":0.0007174,"INCLINATION":97.3833,"RA_OF_ASC_NODE":9.9878,"ARG_OF_PERICENTER":288.3377,"MEAN_ANOMALY":71.7084,"EPHEMERIS_TYPE":0,"NORAD_CAT_ID":42837,"ELEMENT_SET_NO":999,"REV_AT_EPOCH":49164,"BSTAR":0.00035673,"MEAN_MOTION_DOT":0.00010957,"MEAN_MOTION_DDOT":0},{"OBJECT_NAME":"LEMUR-2-ANDIS","OBJECT_ID":"2017-042P","EPOCH":"2026-07-08T05:37:06.420576","CLASSIFICATION_TYPE":"U","MEAN_MOTION":15.35722796,"ECCENTRICITY":0.0007081,"INCLINATION":97.3683,"RA_OF_ASC_NODE":10.0313,"ARG_OF_PERICENTER":288.0321,"MEAN_ANOMALY":72.0151,"EPHEMERIS_TYPE":0,"NORAD_CAT_ID":42838,"ELEMENT_SET_NO":999,"REV_AT_EPOCH":49168,"BSTAR":0.00040768,"MEAN_MOTION_DOT":0.00014104,"MEAN_MOTION_DDOT":0},{"OBJECT_NAME":"LEMUR-2-MONSON","OBJECT_ID":"2017-042Q","EPOCH":"2026-07-08T07:25:08.647968","CLASSIFICATION_TYPE":"U","MEAN_MOTION":15.2863005,"ECCENTRICITY":0.0005138,"INCLINATION":97.4095,"RA_OF_ASC_NODE":9.7866,"ARG_OF_PERICENTER":277.0653,"MEAN_ANOMALY":83.0002,"EPHEMERIS_TYPE":0,"NORAD_CAT_ID":42839,"ELEMENT_SET_NO":999,"REV_AT_EPOCH":49139,"BSTAR":0.00033057,"MEAN_MOTION_DOT":0.00009135,"MEAN_MOTION_DDOT":0},{"OBJECT_NAME":"LEMUR-2-FURIAUS","OBJECT_ID":"2017-042R","EPOCH":"2026-07-08T11:00:35.222400","CLASSIFICATION_TYPE":"U","MEAN_MOTION":15.30975722,"ECCENTRICITY":0.0006516,"INCLINATION":97.3781,"RA_OF_ASC_NODE":7.9032,"ARG_OF_PERICENTER":356.1929,"MEAN_ANOMALY":3.9261,"EPHEMERIS_TYPE":0,"NORAD_CAT_ID":42840,"ELEMENT_SET_NO":999,"REV_AT_EPOCH":49146,"BSTAR":0.00037717,"MEAN_MOTION_DOT":0.00011223,"MEAN_MOTION_DDOT":0},{"OBJECT_NAME":"LEMUR-2-PETERG","OBJECT_ID":"2017-042S","EPOCH":"2026-07-08T05:32:34.772064","CLASSIFICATION_TYPE":"U","MEAN_MOTION":15.34841711,"ECCENTRICITY":0.0002895,"INCLINATION":97.4,"RA_OF_ASC_NODE":14.3087,"ARG_OF_PERICENTER":253.7094,"MEAN_ANOMALY":106.3831,"EPHEMERIS_TYPE":0,"NORAD_CAT_ID":42841,"ELEMENT_SET_NO":999,"REV_AT_EPOCH":49166,"BSTAR":0.00042713,"MEAN_MOTION_DOT":0.00014361,"MEAN_MOTION_DDOT":0},{"OBJECT_NAME":"LEMUR-2-DEMBITZ","OBJECT_ID":"2017-042T","EPOCH":"2026-07-07T22:55:56.681760","CLASSIFICATION_TYPE":"U","MEAN_MOTION":15.30951469,"ECCENTRICITY":0.0005162,"INCLINATION":97.3834,"RA_OF_ASC_NODE":10.4419,"ARG_OF_PERICENTER":306.941,"MEAN_ANOMALY":53.1358,"EPHEMERIS_TYPE":0,"NORAD_CAT_ID":42842,"ELEMENT_SET_NO":999,"REV_AT_EPOCH":49152,"BSTAR":0.00029599,"MEAN_MOTION_DOT":0.00008779,"MEAN_MOTION_DDOT":0},{"OBJECT_NAME":"LEMUR-2-ZACHARY","OBJECT_ID":"2017-042W","EPOCH":"2026-07-08T06:49:32.300832","CLASSIFICATION_TYPE":"U","MEAN_MOTION":15.52227477,"ECCENTRICITY":0.0002315,"INCLINATION":97.3592,"RA_OF_ASC_NODE":21.3972,"ARG_OF_PERICENTER":284.3315,"MEAN_ANOMALY":75.7681,"EPHEMERIS_TYPE":0,"NORAD_CAT_ID":42845,"ELEMENT_SET_NO":999,"REV_AT_EPOCH":49247,"BSTAR":0.00055966,"MEAN_MOTION_DOT":0.00033943,"MEAN_MOTION_DDOT":0},{"OBJECT_NAME":"LEMUR-2-AMANDA-SVANTE","OBJECT_ID":"2021-034B","EPOCH":"2026-07-08T11:30:14.476608","CLASSIFICATION_TYPE":"U","MEAN_MOTION":15.35658966,"ECCENTRICITY":0.0004258,"INCLINATION":97.575,"RA_OF_ASC_NODE":268.3451,"ARG_OF_PERICENTER":159.0301,"MEAN_ANOMALY":201.1118,"EPHEMERIS_TYPE":0,"NORAD_CAT_ID":48269,"ELEMENT_SET_NO":999,"REV_AT_EPOCH":28432,"BSTAR":0.00064497,"MEAN_MOTION_DOT":0.00022324,"MEAN_MOTION_DDOT":0},{"OBJECT_NAME":"LEMUR-2-SPECIAL-K","OBJECT_ID":"2021-034F","EPOCH":"2026-07-07T18:21:55.147104","CLASSIFICATION_TYPE":"U","MEAN_MOTION":15.7200003,"ECCENTRICITY":0.0005799,"INCLINATION":97.5628,"RA_OF_ASC_NODE":277.2182,"ARG_OF_PERICENTER":219.6386,"MEAN_ANOMALY":140.4453,"EPHEMERIS_TYPE":0,"NORAD_CAT_ID":48273,"ELEMENT_SET_NO":999,"REV_AT_EPOCH":28491,"BSTAR":0.001322,"MEAN_MOTION_DOT":0.0017574,"MEAN_MOTION_DDOT":0},{"OBJECT_NAME":"LEMUR-2-EMBRIONOVIS","OBJECT_ID":"2023-084AQ","EPOCH":"2026-07-08T08:22:57.137088","CLASSIFICATION_TYPE":"U","MEAN_MOTION":15.38102724,"ECCENTRICITY":0.0007792,"INCLINATION":97.6312,"RA_OF_ASC_NODE":334.3719,"ARG_OF_PERICENTER":232.9437,"MEAN_ANOMALY":127.1096,"EPHEMERIS_TYPE":0,"NORAD_CAT_ID":56970,"ELEMENT_SET_NO":999,"REV_AT_EPOCH":17093,"BSTAR":0.00024325,"MEAN_MOTION_DOT":0.00009045,"MEAN_MOTION_DDOT":0},{"OBJECT_NAME":"LEMUR-2-DEVERILL-M-T","OBJECT_ID":"2023-100F","EPOCH":"2026-07-07T16:45:47.686176","CLASSIFICATION_TYPE":"U","MEAN_MOTION":15.40821036,"ECCENTRICITY":0.0004797,"INCLINATION":99.446,"RA_OF_ASC_NODE":233.3957,"ARG_OF_PERICENTER":329.3522,"MEAN_ANOMALY":30.7437,"EPHEMERIS_TYPE":0,"NORAD_CAT_ID":57391,"ELEMENT_SET_NO":999,"REV_AT_EPOCH":16440,"BSTAR":0.0003957,"MEAN_MOTION_DOT":0.00016121,"MEAN_MOTION_DDOT":0},{"OBJECT_NAME":"LEMUR-2-BASS","OBJECT_ID":"2023-174D","EPOCH":"2026-07-08T11:24:21.802176","CLASSIFICATION_TYPE":"U","MEAN_MOTION":15.43832953,"ECCENTRICITY":0.0007967,"INCLINATION":97.384,"RA_OF_ASC_NODE":274.4947,"ARG_OF_PERICENTER":98.2966,"MEAN_ANOMALY":261.9186,"EPHEMERIS_TYPE":0,"NORAD_CAT_ID":58259,"ELEMENT_SET_NO":999,"REV_AT_EPOCH":14864,"BSTAR":0.00028849,"MEAN_MOTION_DOT":0.00013006,"MEAN_MOTION_DDOT":0},{"OBJECT_NAME":"LEMUR-2-JK0903EM1407","OBJECT_ID":"2023-174CJ","EPOCH":"2026-07-08T10:01:18.269184","CLASSIFICATION_TYPE":"U","MEAN_MOTION":15.52810136,"ECCENTRICITY":0.0004219,"INCLINATION":97.3916,"RA_OF_ASC_NODE":280.5024,"ARG_OF_PERICENTER":55.3925,"MEAN_ANOMALY":304.7726,"EPHEMERIS_TYPE":0,"NORAD_CAT_ID":58336,"ELEMENT_SET_NO":999,"REV_AT_EPOCH":14902,"BSTAR":0.00032827,"MEAN_MOTION_DOT":0.0002026,"MEAN_MOTION_DDOT":0},{"OBJECT_NAME":"LEMUR-2-MJR092620","OBJECT_ID":"2023-174CN","EPOCH":"2026-07-08T12:40:42.313728","CLASSIFICATION_TYPE":"U","MEAN_MOTION":15.45688281,"ECCENTRICITY":0.0005961,"INCLINATION":97.397,"RA_OF_ASC_NODE":279.9615,"ARG_OF_PERICENTER":52.3346,"MEAN_ANOMALY":307.8443,"EPHEMERIS_TYPE":0,"NORAD_CAT_ID":58340,"ELEMENT_SET_NO":999,"REV_AT_EPOCH":14894,"BSTAR":0.00030739,"MEAN_MOTION_DOT":0.00014763,"MEAN_MOTION_DDOT":0},{"OBJECT_NAME":"LEMUR-2-NIMBUS2000","OBJECT_ID":"2024-022A","EPOCH":"2026-07-08T12:22:06.780000","CLASSIFICATION_TYPE":"U","MEAN_MOTION":15.40914926,"ECCENTRICITY":0.0009427,"INCLINATION":97.4097,"RA_OF_ASC_NODE":39.7947,"ARG_OF_PERICENTER":50.269,"MEAN_ANOMALY":309.9386,"EPHEMERIS_TYPE":0,"NORAD_CAT_ID":58899,"ELEMENT_SET_NO":999,"REV_AT_EPOCH":13555,"BSTAR":0.00040374,"MEAN_MOTION_DOT":0.00016555,"MEAN_MOTION_DDOT":0}]}
