LEMUR-1                 
1 40044U 14033AL  26188.90863065  .00001114  00000+0  13327-3 0  9990
2 40044  97.7901 338.2567 0048383  11.9074 348.3273 14.85322651648543
LEMUR-2-GREENBERG       
1 42837U 17042N   26189.45031502  .00010957  00000+0  35673-3 0  9992
2 42837  97.3833   9.9878 0007174 288.3377  71.7084 15.32004569491643
LEMUR-2-ANDIS           
1 42838U 17042P   26189.23410209  .00014104  00000+0  40768-3 0  9993
2 42838  97.3683  10.0313 0007081 288.0321  72.0151 15.35722796491682
LEMUR-2-MONSON          
1 42839U 17042Q   26189.30912787  .00009135  00000+0  33057-3 0  9991
2 42839  97.4095   9.7866 0005138 277.0653  83.0002 15.28630050491394
LEMUR-2-FURIAUS         
1 42840U 17042R   26189.45874100  .00011223  00000+0  37717-3 0  9993
2 42840  97.3781   7.9032 0006516 356.1929   3.9261 15.30975722491465
LEMUR-2-PETERG          
1 42841U 17042S   26189.23095801  .00014361  00000+0  42713-3 0  9991
2 42841  97.4000  14.3087 0002895 253.7094 106.3831 15.34841711491661
LEMUR-2-DEMBITZ         
1 42842U 17042T   26188.95551715  .00008779  00000+0  29599-3 0  9994
2 42842  97.3834  10.4419 0005162 306.9410  53.1358 15.30951469491521
LEMUR-2-ZACHARY         
1 42845U 17042W   26189.28440163  .00033943  00000+0  55966-3 0  9996
2 42845  97.3592  21.3972 0002315 284.3315  75.7681 15.52227477492473
LEMUR-2-AMANDA-SVANTE   
1 48269U 21034B   26189.47933422  .00022324  00000+0  64497-3 0  9994
2 48269  97.5750 268.3451 0004258 159.0301 201.1118 15.35658966284328
LEMUR-2-SPECIAL-K       
1 48273U 21034F   26188.76522161  .00175740  00000+0  13220-2 0  9992
2 48273  97.5628 277.2182 0005799 219.6386 140.4453 15.72000030284910
LEMUR-2-EMBRIONOVIS     
1 56970U 23084AQ  26189.34927242  .00009045  00000+0  24325-3 0  9999
2 56970  97.6312 334.3719 0007792 232.9437 127.1096 15.38102724170931
LEMUR-2-DEVERILL-M-T    
1 57391U 23100F   26188.69846859  .00016121  00000+0  39570-3 0  9998
2 57391  99.4460 233.3957 0004797 329.3522  30.7437 15.40821036164403
LEMUR-2-BASS            
1 58259U 23174D   26189.47525234  .00013006  00000+0  28849-3 0  9997
2 58259  97.3840 274.4947 0007967  98.2966 261.9186 15.43832953148647
LEMUR-2-JK0903EM1407    
1 58336U 23174CJ  26189.41757256  .00020260  00000+0  32827-3 0  9999
2 58336  97.3916 280.5024 0004219  55.3925 304.7726 15.52810136149025
LEMUR-2-MJR092620       
1 58340U 23174CN  26189.52826752  .00014763  00000+0  30739-3 0  9995
2 58340  97.3970 279.9615 0005961  52.3346 307.8443 15.45688281148943
LEMUR-2-NIMBUS2000      
1 58899U 24022A   26189.51535625  .00016555  00000+0  40374-3 0  9999
2 58899  97.4097  39.7947 0009427  50.2690 309.9386 15.40914926135558
